NORAD_CAT_ID,OBJECT_NAME,OBJECT_TYPE,EPOCH,MEAN_MOTION,ECCENTRICITY,INCLINATION,RA_OF_ASC_NODE,ARG_OF_PERICENTER,MEAN_ANOMALY,BSTAR,MEAN_MOTION_DOT,MEAN_MOTION_DDOT,TLE_LINE0,TLE_LINE1,TLE_LINE2,SEMIMAJOR_AXIS,PERIOD,APOGEE,PERIGEE,DECAYED
55658.0,STARLINK-5307,PAYLOAD,2024-05-19 19:57:13,14.98310565,0.0003538,70.0027,45.5578,285.5902,74.4866,0.00030675,3.567e-05,0.0,0 STARLINK-5307,1 55658U 23021AG  24140.83140780  .00003567  00000-0  30675-3 0  9994,2 55658  70.0027  45.5578 0003538 285.5902  74.4866 14.98310565 69801,6950.253,96.108,574.577,569.659,0.0
55658.0,STARLINK-5307,PAYLOAD,2024-05-20 03:57:54,14.98307508,0.0002974,70.0028,44.7164,277.5166,82.5655,0.0014619,0.00017383,0.0,0 STARLINK-5307,1 55658U 23021AG  24141.16521270  .00017383  00000-0  14619-2 0  9998,2 55658  70.0028  44.7164 0002974 277.5166  82.5655 14.98307508 70159,6950.262,96.108,574.194,570.06,0.0
55658.0,STARLINK-5307,PAYLOAD,2024-05-20 19:59:15,14.98333608,0.0002962,70.003,43.0333,275.8771,84.205,0.001676,0.00019964,0.0,0 STARLINK-5307,1 55658U 23021AG  24141.83281711  .00019964  00000-0  16760-2 0  9991,2 55658  70.0030  43.0333 0002962 275.8771  84.2050 14.98333608 69956,6950.182,96.107,574.105,569.988,0.0
55658.0,STARLINK-5307,PAYLOAD,2024-05-21 03:59:55,14.98347287,0.0002896,70.003,42.1921,274.1385,85.9443,0.0016967,0.00020219,0.0,0 STARLINK-5307,1 55658U 23021AG  24142.16661426  .00020219  00000-0  16967-2 0  9997,2 55658  70.0030  42.1921 0002896 274.1385  85.9443 14.98347287 70301,6950.139,96.106,574.017,569.992,0.0
55658.0,STARLINK-5307,PAYLOAD,2024-05-21 20:01:15,14.9834449,0.0002649,70.0035,40.5093,264.2735,95.8122,0.00069626,8.227e-05,0.0,0 STARLINK-5307,1 55658U 23021AG  24142.83421172  .00008227  00000-0  69626-3 0  9999,2 55658  70.0035  40.5093 0002649 264.2735  95.8122 14.98344490 70108,6950.148,96.106,573.854,570.172,0.0
55658.0,STARLINK-5307,PAYLOAD,2024-05-21 21:37:23,14.98344107,0.0002671,70.0035,40.3409,263.4944,96.5911,0.00064492,7.613e-05,0.0,0 STARLINK-5307,1 55658U 23021AG  24142.90097132  .00007613  00000-0  64492-3 0  9996,2 55658  70.0035  40.3409 0002671 263.4944  96.5911 14.98344107 70418,6950.149,96.106,573.871,570.158,0.0
55658.0,STARLINK-5307,PAYLOAD,2024-05-22 02:25:47,14.98346168,0.0002686,70.0035,39.836,263.4562,96.6291,0.0006682,7.892e-05,0.0,0 STARLINK-5307,1 55658U 23021AG  24143.10124977  .00007892  00000-0  66820-3 0  9993,2 55658  70.0035  39.8360 0002686 263.4562  96.6291 14.98346168 70443,6950.143,96.106,573.875,570.141,0.0
55658.0,STARLINK-5307,PAYLOAD,2024-05-22 20:03:16,14.98335974,0.0002284,70.0051,37.9867,233.3636,126.7313,0.00039343,4.605e-05,0.0,0 STARLINK-5307,1 55658U 23021AG  24143.83561006  .00004605  00000-0  39343-3 0  9990,2 55658  70.0051  37.9867 0002284 233.3636 126.7313 14.98335974 70256,6950.174,96.107,573.627,570.452,0.0
55658.0,STARLINK-5307,PAYLOAD,2024-05-22 21:39:24,14.9833304,0.0002437,70.0044,37.8177,248.0076,112.0824,4.409e-05,4.33e-06,0.0,0 STARLINK-5307,1 55658U 23021AG  24143.90237040  .00000433  00000-0  44090-4 0  9997,2 55658  70.0044  37.8177 0002437 248.0076 112.0824 14.98333040 70563,6950.183,96.107,573.742,570.355,0.0
55658.0,STARLINK-5307,PAYLOAD,2024-05-23 02:27:49,14.98331175,0.0002583,70.0031,37.3106,270.828,89.2583,3.8699e-05,3.69e-06,0.0,0 STARLINK-5307,1 55658U 23021AG  24144.10265229  .00000369  00000-0  38699-4 0  9996,2 55658  70.0031  37.3106 0002583 270.8280  89.2583 14.98331175 70292,6950.189,96.107,573.849,570.259,0.0
55658.0,STARLINK-5307,PAYLOAD,2024-05-23 20:05:17,14.98330717,0.0002899,70.0022,35.4599,267.3565,92.7262,2.2351e-05,1.74e-06,0.0,0 STARLINK-5307,1 55658U 23021AG  24144.83701310  .00000174  00000-0  22351-4 0  9994,2 55658  70.0022  35.4599 0002899 267.3565  92.7262 14.98330717 70704,6950.191,96.107,574.071,570.041,0.0
55658.0,STARLINK-5307,PAYLOAD,2024-05-24 04:05:57,14.98342799,0.0002947,70.002,34.6182,267.5445,92.5377,0.00024185,2.795e-05,0.0,0 STARLINK-5307,1 55658U 23021AG  24145.17080619  .00002795  00000-0  24185-3 0  9991,2 55658  70.0020  34.6182 0002947 267.5445  92.5377 14.98342799 70454,6950.153,96.106,574.067,569.97,0.0
55658.0,STARLINK-5307,PAYLOAD,2024-05-24 12:06:38,14.98324599,0.0003013,70.0018,33.7765,273.6492,86.4323,-3.2729e-06,-1.32e-06,0.0,0 STARLINK-5307,1 55658U 23021AG  24145.50461532 -.00000132  00000-0 -32729-5 0  9995,2 55658  70.0018  33.7765 0003013 273.6492  86.4323 14.98324599 70500,6950.21,96.107,574.169,569.98,0.0
55658.0,STARLINK-5307,PAYLOAD,2024-05-24 13:42:46,14.98325822,0.0003003,70.0014,33.6078,270.6338,89.4477,3.1023e-05,2.77e-06,0.0,0 STARLINK-5307,1 55658U 23021AG  24145.57137482  .00000277  00000-0  31023-4 0  9999,2 55658  70.0014  33.6078 0003003 270.6338  89.4477 14.98325822 70814,6950.206,96.107,574.158,569.984,0.0
55658.0,STARLINK-5307,PAYLOAD,2024-05-24 21:43:26,14.98335864,0.0003006,70.0018,32.7659,270.2798,89.8017,0.00029416,3.419e-05,0.0,0 STARLINK-5307,1 55658U 23021AG  24145.90517110  .00003419  00000-0  29416-3 0  9999,2 55658  70.0018  32.7659 0003006 270.2798  89.8017 14.98335864 70868,6950.175,96.107,574.129,569.951,0.0
55658.0,STARLINK-5307,PAYLOAD,2024-05-25 04:07:58,14.98342282,0.0003053,70.0018,32.0925,271.1601,88.9208,0.00069598,8.224e-05,0.0,0 STARLINK-5307,1 55658U 23021AG  24146.17220859  .00008224  00000-0  69598-3 0  9994,2 55658  70.0018  32.0925 0003053 271.1601  88.9208 14.98342282 70608,6950.155,96.106,574.142,569.898,0.0
55658.0,STARLINK-5307,PAYLOAD,2024-05-25 12:08:39,14.98329409,0.0003048,70.0016,31.2508,268.4252,91.6558,0.00018807,2.152e-05,0.0,0 STARLINK-5307,1 55658U 23021AG  24146.50601129  .00002152  00000-0  18807-3 0  9995,2 55658  70.0016  31.2508 0003048 268.4252  91.6558 14.98329409 70659,6950.195,96.107,574.178,569.941,0.0
55658.0,STARLINK-5307,PAYLOAD,2024-05-25 13:44:47,14.98329565,0.0002964,70.0017,31.0824,266.4672,93.6148,0.0002978,3.462e-05,0.0,0 STARLINK-5307,1 55658U 23021AG  24146.57277152  .00003462  00000-0  29780-3 0  9994,2 55658  70.0017  31.0824 0002964 266.4672  93.6148 14.98329565 70963,6950.194,96.107,574.119,569.999,0.0
55658.0,STARLINK-5307,PAYLOAD,2024-05-26 12:10:40,14.98334653,0.0002989,70.0014,28.726,266.6876,93.3941,0.00046995,5.519e-05,0.0,0 STARLINK-5307,1 55658U 23021AG  24147.50741081  .00005519  00000-0  46995-3 0  9997,2 55658  70.0014  28.7260 0002989 266.6876  93.3941 14.98334653 70807,6950.179,96.107,574.121,569.966,0.0
55658.0,STARLINK-5307,PAYLOAD,2024-05-26 15:22:56,14.98336588,0.0003012,70.0013,28.3892,268.1377,91.9437,0.00036628,4.281e-05,0.0,0 STARLINK-5307,1 55658U 23021AG  24147.64093020  .00004281  00000-0  36628-3 0  9992,2 55658  70.0013  28.3892 0003012 268.1377  91.9437 14.98336588 71123,6950.173,96.107,574.131,569.944,0.0
55658.0,STARLINK-5307,PAYLOAD,2024-05-26 21:47:28,14.98338745,0.0003001,70.0011,27.7159,268.9137,91.1678,0.00031294,3.644e-05,0.0,0 STARLINK-5307,1 55658U 23021AG  24147.90796801  .00003644  00000-0  31294-3 0  9994,2 55658  70.0011  27.7159 0003001 268.9137  91.1678 14.98338745 71160,6950.166,96.106,574.117,569.945,0.0
55658.0,STARLINK-5307,PAYLOAD,2024-05-27 12:12:41,14.98329406,0.0003012,70.0011,26.2008,267.4837,92.5978,-2.445e-05,-3.85e-06,0.0,0 STARLINK-5307,1 55658U 23021AG  24148.50880975 -.00000385  00000-0 -24450-4 0  9995,2 55658  70.0011  26.2008 0003012 267.4837  92.5978 14.98329406 70958,6950.195,96.107,574.153,569.966,0.0
55658.0,STARLINK-5307,PAYLOAD,2024-05-27 13:48:49,14.98329847,0.0003017,70.001,26.0324,267.4414,92.64,-1.7404e-05,-3.01e-06,0.0,0 STARLINK-5307,1 55658U 23021AG  24148.57556957 -.00000301  00000-0 -17404-4 0  9991,2 55658  70.0010  26.0324 0003017 267.4414  92.6400 14.98329847 71267,6950.193,96.107,574.155,569.961,0.0
55658.0,STARLINK-5307,PAYLOAD,2024-05-27 21:49:29,14.98331867,0.0003123,70.0011,25.1909,267.538,92.5421,9.0399e-05,9.86e-06,0.0,0 STARLINK-5307,1 55658U 23021AG  24148.90936910  .00000986  00000-0  90399-4 0  9990,2 55658  70.0011  25.1909 0003123 267.5380  92.5421 14.98331867 71311,6950.187,96.107,574.223,569.882,0.0
55658.0,STARLINK-5307,PAYLOAD,2024-05-28 12:14:42,14.9833174,0.0003134,70.0011,23.6758,267.8403,92.2397,5.1934e-05,5.27e-06,0.0,0 STARLINK-5307,1 55658U 23021AG  24149.51020870  .00000527  00000-0  51934-4 0  9990,2 55658  70.0011  23.6758 0003134 267.8403  92.2397 14.98331740 71103,6950.188,96.107,574.231,569.874,0.0
55658.0,STARLINK-5307,PAYLOAD,2024-05-28 13:50:50,14.98333676,0.0003147,70.0011,23.5075,267.8697,92.2102,0.0001005,1.106e-05,0.0,0 STARLINK-5307,1 55658U 23021AG  24149.57696793  .00001106  00000-0  10050-3 0  9996,2 55658  70.0011  23.5075 0003147 267.8697  92.2102 14.98333676 71411,6950.182,96.107,574.234,569.859,0.0
55658.0,STARLINK-5307,PAYLOAD,2024-05-28 20:15:21,14.98346189,0.0003144,70.0012,22.834,268.0674,92.0125,0.00054227,6.386e-05,0.0,0 STARLINK-5307,1 55658U 23021AG  24149.84400341  .00006386  00000-0  54227-3 0  9997,2 55658  70.0012  22.8340 0003144 268.0674  92.0125 14.98346189 71151,6950.143,96.106,574.193,569.823,0.0
55658.0,STARLINK-5307,PAYLOAD,2024-05-28 21:51:30,14.983459,0.0003156,70.0013,22.6656,267.8722,92.2076,0.00071934,8.504e-05,0.0,0 STARLINK-5307,1 55658U 23021AG  24149.91076396  .00008504  00000-0  71934-3 0  9992,2 55658  70.0013  22.6656 0003156 267.8722  92.2076 14.98345900 71465,6950.144,96.106,574.202,569.815,0.0
55658.0,STARLINK-5307,PAYLOAD,2024-05-29 12:16:42,14.98336636,0.0003153,70.0015,21.1503,268.4216,91.6582,0.00013667,1.538e-05,0.0,0 STARLINK-5307,1 55658U 23021AG  24150.51160306  .00001538  00000-0  13667-3 0  9994,2 55658  70.0015  21.1503 0003153 268.4216  91.6582 14.98336636 71252,6950.172,96.107,574.229,569.846,0.0
55658.0,STARLINK-5307,PAYLOAD,2024-05-29 13:52:50,14.9833472,0.0003171,70.0015,20.982,268.8817,91.1979,3.9643e-05,3.8e-06,0.0,0 STARLINK-5307,1 55658U 23021AG  24150.57836326  .00000380  00000-0  39643-4 0  9999,2 55658  70.0015  20.9820 0003171 268.8817  91.1979 14.98334720 71563,6950.178,96.107,574.247,569.839,0.0
